{
  "norad_id": 67926,
  "name": "STARLINK-36758",
  "history": [
    {
      "epoch": "2026-04-13T05:21:57.299904Z",
      "apogee_km": 484.1731870522317,
      "perigee_km": 481.90927268350424,
      "latitude_deg": 2.7878677688870387e-06,
      "longitude_deg": 128.31751386807503,
      "height_km": 482.73946650353935,
      "semi_major_axis_km": 6861.178229867867,
      "eccentricity": 0.00016498,
      "inclination_deg": 42.9985,
      "raan_deg": 50.2237,
      "arg_perigee_deg": 273.977,
      "mean_anomaly_deg": 86.0893,
      "mean_motion_rev_day": 15.27582627
    },
    {
      "epoch": "2026-04-14T12:45:04.789152Z",
      "apogee_km": 483.91026586886346,
      "perigee_km": 482.13020723541194,
      "latitude_deg": 7.79623656198998e-06,
      "longitude_deg": 8.860962128629184,
      "height_km": 482.654336166463,
      "semi_major_axis_km": 6861.157236552137,
      "eccentricity": 0.00012972,
      "inclination_deg": 43.0024,
      "raan_deg": 42.8373,
      "arg_perigee_deg": 279.2319,
      "mean_anomaly_deg": 80.8386,
      "mean_motion_rev_day": 15.27589638
    },
    {
      "epoch": "2026-04-15T20:08:12.837408Z",
      "apogee_km": 484.862303136244,
      "perigee_km": 481.18609296632803,
      "latitude_deg": 6.683583270138727e-05,
      "longitude_deg": -110.59646644322699,
      "height_km": 482.2634181616036,
      "semi_major_axis_km": 6861.161198051285,
      "eccentricity": 0.0002679,
      "inclination_deg": 43.0023,
      "raan_deg": 35.4523,
      "arg_perigee_deg": 287.0413,
      "mean_anomaly_deg": 73.0146,
      "mean_motion_rev_day": 15.27588315
    },
    {
      "epoch": "2026-04-16T11:49:46.613568Z",
      "apogee_km": 483.71431985130585,
      "perigee_km": 482.35855198036916,
      "latitude_deg": 1.1964728120817928e-05,
      "longitude_deg": 9.674865371564442,
      "height_km": 482.64495230239066,
      "semi_major_axis_km": 6861.173435915837,
      "eccentricity": 9.88e-05,
      "inclination_deg": 42.9978,
      "raan_deg": 31.7589,
      "arg_perigee_deg": 284.3127,
      "mean_anomaly_deg": 75.7615,
      "mean_motion_rev_day": 15.27584228
    },
    {
      "epoch": "2026-04-17T22:21:12.797568Z",
      "apogee_km": 484.3282614729269,
      "perigee_km": 481.64954069862506,
      "latitude_deg": 5.88209439398905e-06,
      "longitude_deg": -157.7260869142542,
      "height_km": 482.77276516776254,
      "semi_major_axis_km": 6861.125901085776,
      "eccentricity": 0.00019521,
      "inclination_deg": 43.0001,
      "raan_deg": 23.6349,
      "arg_perigee_deg": 269.7126,
      "mean_anomaly_deg": 90.3502,
      "mean_motion_rev_day": 15.27600103
    },
    {
      "epoch": "2026-04-18T10:54:27.545472Z",
      "apogee_km": 483.90475135215183,
      "perigee_km": 482.08092581845904,
      "latitude_deg": 2.256095134829615e-05,
      "longitude_deg": 10.492202921397011,
      "height_km": 482.5764733833814,
      "semi_major_axis_km": 6861.129838585305,
      "eccentricity": 0.00013291,
      "inclination_deg": 42.998,
      "raan_deg": 20.6802,
      "arg_perigee_deg": 282.2047,
      "mean_anomaly_deg": 77.8656,
      "mean_motion_rev_day": 15.27598788
    },
    {
      "epoch": "2026-04-19T10:26:48.547968Z",
      "apogee_km": 483.8834775835212,
      "perigee_km": 482.26176207777826,
      "latitude_deg": -2.162828872911196e-05,
      "longitude_deg": 10.900325588836592,
      "height_km": 482.7035449571804,
      "semi_major_axis_km": 6861.209619830649,
      "eccentricity": 0.00011818,
      "inclination_deg": 42.9987,
      "raan_deg": 15.1426,
      "arg_perigee_deg": 280.3339,
      "mean_anomaly_deg": 79.7379,
      "mean_motion_rev_day": 15.27572144
    },
    {
      "epoch": "2026-04-20T02:08:23.090496Z",
      "apogee_km": 483.96783149983094,
      "perigee_km": 482.2202759504462,
      "latitude_deg": 3.635744054857021e-06,
      "longitude_deg": 131.1710387535194,
      "height_km": 482.98629825851424,
      "semi_major_axis_km": 6861.231053725138,
      "eccentricity": 0.00012735,
      "inclination_deg": 42.9987,
      "raan_deg": 11.4517,
      "arg_perigee_deg": 262.3831,
      "mean_anomaly_deg": 97.6876,
      "mean_motion_rev_day": 15.27564986
    },
    {
      "epoch": "2026-04-21T09:31:30.971136Z",
      "apogee_km": 483.97022792943426,
      "perigee_km": 482.04951847375014,
      "latitude_deg": -2.53226649418472e-05,
      "longitude_deg": 11.712311214599467,
      "height_km": 482.8264404253992,
      "semi_major_axis_km": 6861.146873201592,
      "eccentricity": 0.00013997,
      "inclination_deg": 43.0011,
      "raan_deg": 4.0648,
      "arg_perigee_deg": 267.6279,
      "mean_anomaly_deg": 92.4412,
      "mean_motion_rev_day": 15.27593099
    },
    {
      "epoch": "2026-04-22T01:13:04.345536Z",
      "apogee_km": 483.9493261431153,
      "perigee_km": 482.02779931801706,
      "latitude_deg": -1.3753836841043898e-05,
      "longitude_deg": 131.98778950432919,
      "height_km": 482.7739026448975,
      "semi_major_axis_km": 6861.125562730565,
      "eccentricity": 0.00014003,
      "inclination_deg": 43.0033,
      "raan_deg": 0.3738,
      "arg_perigee_deg": 269.5067,
      "mean_anomaly_deg": 90.5624,
      "mean_motion_rev_day": 15.27600216
    },
    {
      "epoch": "2026-04-23T00:45:24.958368Z",
      "apogee_km": 485.0849797250876,
      "perigee_km": 480.9703392787842,
      "latitude_deg": -5.890609722336271e-06,
      "longitude_deg": 132.39499391879428,
      "height_km": 483.11872672468,
      "semi_major_axis_km": 6861.164659501936,
      "eccentricity": 0.00029985,
      "inclination_deg": 43.0022,
      "raan_deg": 354.8336,
      "arg_perigee_deg": 261.248,
      "mean_anomaly_deg": 98.8032,
      "mean_motion_rev_day": 15.27587159
    }
  ]
}